{
  "type": "FeatureCollection",
  "features": [
    {
      "type": "Feature",
      "properties": {
        "norad_id": 66611,
        "name": "STARLINK-35583",
        "group": "last-30-days",
        "lat": -42.78622323576487,
        "lon": 114.24896707768865,
        "alt_km": 403.1255405241227,
        "timestamp": "2025-12-09T14:52:24.942601+00:00",
        "meta_object_name": "STARLINK-35583",
        "meta_object_id": "2025-270Z",
        "meta_epoch": "2025-12-09T06:00:02.000160",
        "meta_mean_motion": 15.57024568,
        "meta_eccentricity": 0.00017935,
        "meta_inclination": 42.9994,
        "meta_ra_of_asc_node": 213.0766,
        "meta_arg_of_pericenter": 262.7223,
        "meta_mean_anomaly": 88.6763,
        "meta_ephemeris_type": 0,
        "meta_classification_type": "U",
        "meta_norad_cat_id": 66611,
        "meta_element_set_no": 999,
        "meta_rev_at_epoch": 394,
        "meta_bstar": -0.030956484,
        "meta_mean_motion_dot": -0.02051162,
        "meta_mean_motion_ddot": 0,
        "tle_line1": "1 66611U 25270Z   25343.25002315 -.02051162  00000+0 -30956-1 0  9993",
        "tle_line2": "2 66611  42.9994 213.0766 0001793 262.7223  88.6763 15.57024568  3945"
      },
      "geometry": {
        "type": "Point",
        "coordinates": [
          114.24896707768865,
          -42.78622323576487
        ]
      }
    },
    {
      "type": "Feature",
      "properties": {
        "norad_id": 66612,
        "name": "STARLINK-36039",
        "group": "last-30-days",
        "lat": -42.90791716920287,
        "lon": 116.85113025232434,
        "alt_km": 403.19951931917785,
        "timestamp": "2025-12-09T14:52:24.942611+00:00",
        "meta_object_name": "STARLINK-36039",
        "meta_object_id": "2025-270AA",
        "meta_epoch": "2025-12-09T06:00:02.000160",
        "meta_mean_motion": 15.57022907,
        "meta_eccentricity": 0.00016895,
        "meta_inclination": 42.9995,
        "meta_ra_of_asc_node": 213.0714,
        "meta_arg_of_pericenter": 262.9861,
        "meta_mean_anomaly": 90.3304,
        "meta_ephemeris_type": 0,
        "meta_classification_type": "U",
        "meta_norad_cat_id": 66612,
        "meta_element_set_no": 999,
        "meta_rev_at_epoch": 384,
        "meta_bstar": -0.030895732,
        "meta_mean_motion_dot": -0.02047381,
        "meta_mean_motion_ddot": 0,
        "tle_line1": "1 66612U 25270AA  25343.25002315 -.02047381  00000+0 -30896-1 0  9995",
        "tle_line2": "2 66612  42.9995 213.0714 0001689 262.9861  90.3304 15.57022907  3849"
      },
      "geometry": {
        "type": "Point",
        "coordinates": [
          116.85113025232434,
          -42.90791716920287
        ]
      }
    },
    {
      "type": "Feature",
      "properties": {
        "norad_id": 66613,
        "name": "STARLINK-36037",
        "group": "last-30-days",
        "lat": -42.970023633720935,
        "lon": 119.45942388581456,
        "alt_km": 403.1694272277837,
        "timestamp": "2025-12-09T14:52:24.942621+00:00",
        "meta_object_name": "STARLINK-36037",
        "meta_object_id": "2025-270AB",
        "meta_epoch": "2025-12-09T06:00:02.000160",
        "meta_mean_motion": 15.57022266,
        "meta_eccentricity": 0.00017371,
        "meta_inclination": 42.9994,
        "meta_ra_of_asc_node": 213.0665,
        "meta_arg_of_pericenter": 264.8774,
        "meta_mean_anomaly": 90.3569,
        "meta_ephemeris_type": 0,
        "meta_classification_type": "U",
        "meta_norad_cat_id": 66613,
        "meta_element_set_no": 999,
        "meta_rev_at_epoch": 384,
        "meta_bstar": -0.030890507,
        "meta_mean_motion_dot": -0.02047059,
        "meta_mean_motion_ddot": 0,
        "tle_line1": "1 66613U 25270AB  25343.25002315 -.02047059  00000+0 -30891-1 0  9993",
        "tle_line2": "2 66613  42.9994 213.0665 0001737 264.8774  90.3569 15.57022266  3843"
      },
      "geometry": {
        "type": "Point",
        "coordinates": [
          119.45942388581456,
          -42.970023633720935
        ]
      }
    },
    {
      "type": "Feature",
      "properties": {
        "norad_id": 66614,
        "name": "STARLINK-36040",
        "group": "last-30-days",
        "lat": -42.915736648024826,
        "lon": 124.68295335921408,
        "alt_km": 403.1608586947059,
        "timestamp": "2025-12-09T14:52:24.942631+00:00",
        "meta_object_name": "STARLINK-36040",
        "meta_object_id": "2025-270AC",
        "meta_epoch": "2025-12-09T06:00:02.000160",
        "meta_mean_motion": 15.57020091,
        "meta_eccentricity": 0.00017682,
        "meta_inclination": 42.9994,
        "meta_ra_of_asc_node": 213.0569,
        "meta_arg_of_pericenter": 262.5368,
        "meta_mean_anomaly": 96.5327,
        "meta_ephemeris_type": 0,
        "meta_classification_type": "U",
        "meta_norad_cat_id": 66614,
        "meta_element_set_no": 999,
        "meta_rev_at_epoch": 368,
        "meta_bstar": -0.03084312,
        "meta_mean_motion_dot": -0.02044124,
        "meta_mean_motion_ddot": 0,
        "tle_line1": "1 66614U 25270AC  25343.25002315 -.02044124  00000+0 -30843-1 0  9991",
        "tle_line2": "2 66614  42.9994 213.0569 0001768 262.5368  96.5327 15.57020091  3681"
      },
      "geometry": {
        "type": "Point",
        "coordinates": [
          124.68295335921408,
          -42.915736648024826
        ]
      }
    },
    {
      "type": "Feature",
      "properties": {
        "norad_id": 66615,
        "name": "STARLINK-35988",
        "group": "last-30-days",
        "lat": -42.97270287800959,
        "lon": 122.07077830022766,
        "alt_km": 403.09699498446116,
        "timestamp": "2025-12-09T14:52:24.942640+00:00",
        "meta_object_name": "STARLINK-35988",
        "meta_object_id": "2025-270AD",
        "meta_epoch": "2025-12-09T06:00:02.000160",
        "meta_mean_motion": 15.57021278,
        "meta_eccentricity": 0.00018443,
        "meta_inclination": 42.9994,
        "meta_ra_of_asc_node": 213.0616,
        "meta_arg_of_pericenter": 264.9538,
        "meta_mean_anomaly": 92.1974,
        "meta_ephemeris_type": 0,
        "meta_classification_type": "U",
        "meta_norad_cat_id": 66615,
        "meta_element_set_no": 999,
        "meta_rev_at_epoch": 368,
        "meta_bstar": -0.030865768,
        "meta_mean_motion_dot": -0.02045599,
        "meta_mean_motion_ddot": 0,
        "tle_line1": "1 66615U 25270AD  25343.25002315 -.02045599  00000+0 -30866-1 0  9994",
        "tle_line2": "2 66615  42.9994 213.0616 0001844 264.9538  92.1974 15.57021278  3683"
      },
      "geometry": {
        "type": "Point",
        "coordinates": [
          122.07077830022766,
          -42.97270287800959
        ]
      }
    },
    {
      "type": "Feature",
      "properties": {
        "norad_id": 66616,
        "name": "STARLINK-35391",
        "group": "last-30-days",
        "lat": -42.799600767742476,
        "lon": 127.28459544499403,
        "alt_km": 403.1576250031976,
        "timestamp": "2025-12-09T14:52:24.942653+00:00",
        "meta_object_name": "STARLINK-35391",
        "meta_object_id": "2025-270AE",
        "meta_epoch": "2025-12-09T06:00:02.000160",
        "meta_mean_motion": 15.57023345,
        "meta_eccentricity": 0.00017615,
        "meta_inclination": 42.9995,
        "meta_ra_of_asc_node": 213.0523,
        "meta_arg_of_pericenter": 263.4122,
        "meta_mean_anomaly": 97.5701,
        "meta_ephemeris_type": 0,
        "meta_classification_type": "U",
        "meta_norad_cat_id": 66616,
        "meta_element_set_no": 999,
        "meta_rev_at_epoch": 394,
        "meta_bstar": -0.03085268,
        "meta_mean_motion_dot": -0.0204491,
        "meta_mean_motion_ddot": 0,
        "tle_line1": "1 66616U 25270AE  25343.25002315 -.02044910  00000+0 -30853-1 0  9997",
        "tle_line2": "2 66616  42.9995 213.0523 0001761 263.4122  97.5701 15.57023345  3946"
      },
      "geometry": {
        "type": "Point",
        "coordinates": [
          127.28459544499403,
          -42.799600767742476
        ]
      }
    },
    {
      "type": "Feature",
      "properties": {
        "norad_id": 66617,
        "name": "STARLINK-35940",
        "group": "last-30-days",
        "lat": -40.25595501935222,
        "lon": 61.72508796731453,
        "alt_km": 382.45531951277826,
        "timestamp": "2025-12-09T14:52:24.942664+00:00",
        "meta_object_name": "STARLINK-35940",
        "meta_object_id": "2025-271A",
        "meta_epoch": "2025-12-09T06:00:02.000160",
        "meta_mean_motion": 15.65188002,
        "meta_eccentricity": 8.165e-05,
        "meta_inclination": 53.1588,
        "meta_ra_of_asc_node": 204.1246,
        "meta_arg_of_pericenter": 93.253,
        "meta_mean_anomaly": 217.2646,
        "meta_ephemeris_type": 0,
        "meta_classification_type": "U",
        "meta_norad_cat_id": 66617,
        "meta_element_set_no": 999,
        "meta_rev_at_epoch": 368,
        "meta_bstar": -0.023038737,
        "meta_mean_motion_dot": -0.02037972,
        "meta_mean_motion_ddot": 0,
        "tle_line1": "1 66617U 25271A   25343.25002315 -.02037972  00000+0 -23039-1 0  9997",
        "tle_line2": "2 66617  53.1588 204.1246 0000816  93.2530 217.2646 15.65188002  3685"
      },
      "geometry": {
        "type": "Point",
        "coordinates": [
          61.72508796731453,
          -40.25595501935222
        ]
      }
    }
  ]
}